SL-16 R/B               
1 28353U 04021B   25227.46850966  .00000344  00000+0  20370-3 0  9995
2 28353  71.0018 305.2535 0005677 331.9042  28.1773 14.14556012 93672
CZ-4B R/B               
1 28415U 04035C   25227.55101432  .00006398  00000+0  25540-3 0  9995
2 28415  97.3770 259.5770 0034271 340.6375  19.3558 15.24959509148457
CZ-2C R/B               
1 28480U 04046B   25227.54051763  .00000207  00000+0  91969-4 0  9991
2 28480  98.1912 150.3918 0140659  44.8679 316.3773 14.26856657 79101
ARIANE 5 R/B            
1 28499U 04049H   25227.44061266  .00000654  00000+0  80044-4 0  9990
2 28499  98.2417  23.5595 0084039 299.8479  59.4401 14.84613257115186
CZ-2D R/B               
1 28738U 05024B   25227.48898580  .00018679  00000+0  38637-3 0  9997
2 28738  97.3696 232.4348 0007980  73.8500 286.3627 15.45815535107793
ALOS (DAICHI)           
1 28931U 06002A   25227.57812761  .00001403  00000+0  24832-3 0  9995
2 28931  98.0881 180.1013 0001062 114.7288 245.4028 14.68895678 43210
H-2A R/B                
1 28932U 06002B   25227.61281377  .00007190  00000+0  41073-3 0  9999
2 28932  98.2186 353.0417 0057129 219.7414 139.9623 15.11665282 63251
RESURS-DK 1             
1 29228U 06021A   25227.52437731  .00002507  00000+0  15506-3 0  9995
2 29228  69.9338  49.6930 0001534  48.1817 311.9479 15.11238495 56369
CZ-4B R/B               
1 29507U 06046C   25227.55287686  .00003300  00000+0  18174-3 0  9993
2 29507  97.5912 268.0153 0033641 259.7667  99.9770 15.14271920 28825
CZ-2C R/B               
1 31114U 07010B   25227.58123266  .00000144  00000+0  85169-4 0  9990
2 31114  98.3855 346.3157 0059288 172.4385 187.7700 14.20146488950463
COSMO-SKYMED 1          
1 31598U 07023A   25227.53005416  .00003331  00000+0  31273-3 0  9998
2 31598  97.8897  52.2258 0001538  92.7646 267.3750 14.94658592984083
GENESIS 2               
1 31789U 07028A   25227.39101497  .00307980  47036-4  57672-3 0  9998
2 31789  64.4666 174.8657 0020880 290.1638  69.7279 16.00257481  3521
COSMOS 2428             
1 31792U 07029A   25227.51533588  .00000054  00000+0  54686-4 0  9997
2 31792  70.9427 276.1439 0004959 226.8406 133.2301 14.12901635934977
SL-16 R/B               
1 31793U 07029B   25227.47682882  .00000052  00000+0  51619-4 0  9996
2 31793  70.9713 245.8431 0002518 274.5362 191.6545 14.14788035936206
KORONAS-FOTON           
1 33504U 09003A   25227.46412838  .00006462  00000+0  17331-3 0  9996
2 33504  82.4330 129.3170 0012013 166.9474 193.2083 15.37687378913996
CZ-2C R/B               
1 37731U 11030B   25227.58879800  .00001256  00000+0  16793-3 0  9991
2 37731  97.8194 184.5331 0052056 302.0171 149.5651 14.80366217759592
H-2A R/B                
1 38341U 12025E   25227.41051659  .00002700  00000+0  25915-3 0  9991
2 38341  98.4394 173.7069 0044482 266.8632  92.7495 14.93334536717413
SHIJIAN-16 (SJ-16)      
1 39358U 13057A   25227.55689700  .00000912  00000+0  93763-4 0  9995
2 39358  74.9701 215.0527 0018333 254.7437 105.1724 14.91499331640767
SL-4 R/B                
1 39679U 14021B   25227.36645481  .00009052  00000+0  24396-3 0  9999
2 39679  51.6067 258.7752 0111236  74.1533 287.1677 15.32580658624568
ALOS-2                  
1 39766U 14029A   25227.57395113  .00001491  00000+0  20647-3 0  9995
2 39766  97.9226 324.1259 0001509  96.6252 263.5131 14.79476892606391
YAOGAN-29               
1 41038U 15069A   25227.57936678  .00000400  00000+0  56256-4 0  9997
2 41038  98.0335 250.2760 0000663  12.7291 347.3939 14.82696880525333
ASTRO-H (HITOMI)        
1 41337U 16012A   25227.41242618  .00002596  00000+0  15725-3 0  9998
2 41337  30.9992 245.9967 0009825  61.1680 298.9943 15.08334385521046
HXMT (HUIYAN)           
1 42758U 17034A   25227.61086799  .00004208  00000+0  23478-3 0  9995
2 42758  43.0144  79.7116 0033811  12.1650 348.0006 15.14363720451267
CZ-2C R/B               
1 43521U 18054D   25227.44128478  .00034777  00000+0  47382-3 0  9993
2 43521  35.1374 256.9523 0030056  93.3538 267.0628 15.55942803396378
SAOCOM 1A               
1 43641U 18076A   25227.58326701 -.00000348  00000+0 -37186-4 0  9995
2 43641  97.8898  53.7074 0001421  90.6516 269.4860 14.82153464370834
H-2A R/B                
1 43682U 18084L   25227.42686884  .00012390  00000+0  39701-3 0  9995
2 43682  98.8825  37.3500 0031173  15.6965 344.5231 15.32088071374102
SAOCOM 1B               
1 46265U 20059A   25227.54701278  .00000393  00000+0  55918-4 0  9997
2 46265  97.8906  52.7769 0001402  88.8254 271.3120 14.82146254268214
CSS (TIANHE)            
1 48274U 21035A   25227.61877558  .00021669  00000+0  28439-3 0  9993
2 48274  41.4657  20.5192 0005053 165.5143 194.5840 15.58006477245422
COSMOS 2550             
1 48865U 21056A   25227.59182030  .00001833  00000+0  61504-4 0  9995
2 48865  67.1429 304.4035 0008382 269.9534  90.0660 15.33834598231859
CZ-2C R/B               
1 52794U 22058K   25227.51730792  .00014044  00000+0  31906-3 0  9990
2 52794  50.1921 288.0510 0054707  60.0152 300.6227 15.41696079178204
GSLV R/B                
1 54149U 22138AN  25227.49135098  .00002548  00000+0  22900-3 0  9990
2 54149  87.3761 235.3906 0022458 173.4576 186.6952 14.95074728153103
XRISM                   
1 57800U 23137A   25227.53873021  .00004977  00000+0  30491-3 0  9999
2 57800  31.0011 174.0603 0007877 131.2581 228.8736 15.08572285106601
ACS3                    
1 59588U 24077B   25227.46021088  .00010023  00000+0  95483-2 0  9998
2 59588  97.4192 209.1065 0067673  24.9395 335.5008 13.79741685 65661
